ORBCOMM FM103           
1 40091U 14040F   25281.23705433  .00000992  00000+0  24863-3 0  9993
2 40091  47.0048 203.8463 0001211  58.1257 301.9746 14.58364974580608
ORBCOMM FM114           
1 41179U 15081A   25281.52950691  .00000882  00000+0  22492-3 0  9991
2 41179  47.0017 111.4511 0001906 160.8792 199.2165 14.58400187521016
ORBCOMM FM119           
1 41180U 15081B   25281.45416505  .00001028  00000+0  25645-3 0  9992
2 41180  47.0019  21.1504 0001791 228.5063 131.5669 14.58342268522254
ORBCOMM FM105           
1 41181U 15081C   25281.39081089  .00000451  00000+0  17166-3 0  9999
2 41181  47.0027  37.4247 0001235 129.1157 230.9833 14.45320871517120
ORBCOMM FM110           
1 41182U 15081D   25281.52136524  .00001038  00000+0  25808-3 0  9994
2 41182  47.0009 111.0205 0002239 351.1284   8.9561 14.58429471520885
ORBCOMM FM118           
1 41183U 15081E   25281.55404329  .00000758  00000+0  19855-3 0  9992
2 41183  47.0033 111.1312 0002987 307.8363  52.2252 14.58397446520996
ORBCOMM FM112           
1 41184U 15081F   25281.49082913  .00001287  00000+0  31112-3 0  9995
2 41184  47.0007  20.0240 0001409 179.3909 180.6979 14.58452948522209
ORBCOMM FM113           
1 41185U 15081G   25281.53642333  .00001275  00000+0  30845-3 0  9998
2 41185  47.0020  20.1529 0001504 198.5713 161.5118 14.58464411522197
